BEESAT-4                
1 41619U 16040W   23005.56797205  .00029159  00000+0  76371-3 0  9995
2 41619  97.1894  56.3533 0009044 106.5694 253.6545 15.38619270351713
CAS-2T & KS-1Q          
1 41847U 16066G   23005.43690197  .00000968  00000+0  15521-3 0  9991
2 41847  98.5274  74.6739 0361626 325.5476  32.2736 14.38996542323397
NAYIF-1 (EO-88)         
1 42017U 17008BX  23005.14729388  .00043891  00000+0  96619-3 0  9990
2 42017  97.2443  74.1134 0002811 232.4367 127.6626 15.43830366328084
ZHUHAI-1 02 (CAS-4B)    
1 42759U 17034B   23005.31015984  .00007776  00000+0  43460-3 0  9999
2 42759  43.0180 298.7147 0008835 129.4520  11.4884 15.13816596306921
ZHUHAI-1 01 (CAS-4A)    
1 42761U 17034D   23005.53715286  .00007194  00000+0  40187-3 0  9995
2 42761  43.0186 296.0990 0009220 136.1707  32.8920 15.13916587306961
MAX VALIER SAT          
1 42778U 17036P   23005.38509950  .00016536  00000+0  54998-3 0  9992
2 42778  97.1810  44.7447 0008997 336.7523  23.3310 15.31197630307758
RADFXSAT (FOX-1B)       
1 43017U 17073E   23005.43016332  .00006980  00000+0  51421-3 0  9993
2 43017  97.6526 256.2872 0241115 245.3681 112.2247 14.83239235277035
FOX-1D (AO-92)          
1 43137U 18004AC  23005.44560603  .00018980  00000+0  56900-3 0  9997
2 43137  97.3504  84.1751 0007360  15.0144 345.1316 15.34505470277266
DIWATA-2B               
1 43678U 18084H   23005.33486033  .00001284  00000+0  13051-3 0  9996
2 43678  97.9954 146.3821 0009490 347.2840  12.8206 14.92607149227966
ES'HAIL 2               
1 43700U 18090A   23005.53477745  .00000157  00000+0  00000+0 0  9995
2 43700   0.0166  46.1986 0001928 274.9812   1.9782  1.00273409 15050
FOX-1CLIFF (AO-95)      
1 43770U 18099N   23005.05972995  .00005321  00000+0  45921-3 0  9998
2 43770  97.5981  71.0390 0012466 325.4510  34.5901 14.97618542223175
ITASAT 1                
1 43786U 18099AE  23005.44341111  .00003666  00000+0  31808-3 0  9997
2 43786  97.6000  72.4262 0013526 313.1241  46.8849 14.97601831223272
JY1SAT (JO-97)          
1 43803U 18099AX  23005.17853620  .00005044  00000+0  42717-3 0  9993
2 43803  97.5959  72.0116 0013187 311.7395  48.2699 14.98370410223260
UWE-4                   
1 43880U 18111E   23005.49474482  .00006148  00000+0  50345-3 0  9995
2 43880  97.6617 273.2795 0012803  17.0077 343.1573 14.99593529219961
NEXUS (FO-99)           
1 43937U 19003F   23005.53927472  .00023572  00000+0  64781-3 0  9995
2 43937  97.1095  36.5309 0018615 143.4333 216.8187 15.37034612220949
PSAT2 (NO-104)          
1 44354U 19036R   23005.59783461  .00241013  11158-4  82343-3 0  9996
2 44354  28.5151 186.4352 0109133 138.0583 222.8444 15.79280843196164
JAISAT-1                
1 44419U 19038F   23005.40073682  .00014330  00000+0  63726-3 0  9990
2 44419  97.6596 342.9595 0018515 146.3009 213.9408 15.21457672193714
DUCHIFAT-3              
1 44854U 19089C   23005.31187536  .00006582  00000+0  48707-3 0  9995
2 44854  36.9660 342.2748 0005914  57.7693  51.0842 15.02851685168290
CAS-6 (TIANQIN 1)       
1 44881U 19093C   23005.40902251  .00000939  00000+0  12489-3 0  9997
2 44881  97.8775  86.5796 0013569 247.2041 112.7750 14.82011638164687
RS-44 & BREEZE-KM R/B   
1 44909U 19096E   23005.52602807  .00000010  00000+0 -52324-6 0  9994
2 44909  82.5217  96.0364 0217168 207.0164 151.9501 12.79717418141359
ORBITAL FACTORY 2 (OF-2)
1 45113U 19071C   23005.35834846  .00087510  00000+0  93268-3 0  9994
2 45113  51.6319 135.9539 0007892 215.7478 144.2989 15.63190877164731
HUSKYSAT-1 (HO-107)     
1 45119U 19071J   23004.90597099  .00076464  00000+0  95523-3 0  9998
2 45119  51.6326 141.1480 0008223 204.0924 155.9685 15.59120630164619
BY70-2                  
1 45857U 20042B   23005.35074625  .00012533  00000+0  15430-2 0  9997
2 45857  97.9414  85.5139 0010057 176.0339 184.0960 14.83061117135344
SALSAT                  
1 46495U 20068K   23005.28507684  .00003394  00000+0  23906-3 0  9995
2 46495  97.7523 312.0086 0015025 318.2893  41.7187 15.05639482124547
BY70-3                  
1 46839U 20079N   23005.53018597  .00066287  00000+0  94177-3 0  9995
2 46839  97.1762  81.2928 0003298 322.8019 161.0565 15.56181650121490
RADFXSAT-2 (AO-109)     
1 47311U 21002C   23005.39359115  .00016248  00000+0  55791-3 0  9997
2 47311  60.6849 319.9413 0039063  93.5452 267.0107 15.29613835109309
UVSQ-SAT                
1 47438U 21006AB  23005.13284144  .00011396  00000+0  55319-3 0  9997
2 47438  97.4120  65.0424 0009793 297.9808  62.0435 15.18594980107854
DIY-1 (ARDUIQUBE)       
1 47963U 21022AH  23004.97929125  .00044515  00000+0  19010-2 0  9990
2 47963  97.5178 269.8545 0014518 145.4599 214.7583 15.22644357 97503
XW-3 (CAS-9)            
1 50466U 21131B   23005.50704509  .00000399  00000+0  14488-3 0  9997
2 50466  98.5663  87.5168 0003585 261.3183  98.7598 14.38611794 53963
TEVEL-3                 
1 50988U 22002E   23005.56124528  .00012976  00000+0  64229-3 0  9999
2 50988  97.4594  74.3092 0010273  84.2897  21.4641 15.17876774 54039
TEVEL-8                 
1 50989U 22002F   23005.57390750  .00013074  00000+0  64810-3 0  9999
2 50989  97.4604  74.3619 0010452  83.2089  24.5959 15.17820793 54034
TEVEL-5                 
1 50998U 22002Q   23005.58087840  .00013324  00000+0  64840-3 0  9994
2 50998  97.4583  74.5563 0011878  80.1249  32.1565 15.18448437 54059
TEVEL-6                 
1 50999U 22002R   23005.57937528  .00013373  00000+0  65065-3 0  9995
2 50999  97.4581  74.5509 0011799  79.9812  29.8323 15.18456149 54056
TEVEL-1                 
1 51013U 22002AF  23005.56709847  .00013010  00000+0  64454-3 0  9992
2 51013  97.4586  74.2787 0010161  82.5790  23.1917 15.17846734 54037
TEVEL-7                 
1 51062U 22002CG  23005.57676344  .00013047  00000+0  64680-3 0  9993
2 51062  97.4605  74.3450 0010366  82.1301  30.0887 15.17821513 54033
TEVEL-4                 
1 51063U 22002CH  23005.57844031  .00013009  00000+0  64531-3 0  9997
2 51063  97.4596  74.3379 0010394  83.6293  26.0715 15.17800456 54038
TEVEL-2                 
1 51069U 22002CP  23005.56307376  .00012998  00000+0  64343-3 0  9995
2 51069  97.4581  74.2893 0010267  83.9578  21.7674 15.17873647 54034
GREENCUBE               
1 53106U 22080B   22354.08419093 -.00000003  00000+0  00000+0 0  9999
2 53106  70.1702  21.9397 0008914 226.9685 182.2049  6.42557326 10248
YUZGU 9 (RS3S)          
1 53308U 98067TT  23005.28378562  .00283391  00000+0  13656-2 0  9998
2 53308  51.6334  42.3292 0006098  12.2390 347.8759 15.81243580 26249
YUZGU 7 (RS1S)          
1 53309U 98067TU  23004.54751138  .00374954  00000+0  17005-2 0  9999
2 53309  51.6318  45.6485 0006606   9.0303 351.0817 15.82306568 26086
YUZGU 11 (RS5S)         
1 53310U 98067TV  23005.59654235  .00284150  00000+0  13396-2 0  9994
2 53310  51.6340  40.6675 0006090  11.4700 348.6440 15.81714785 26272
YUZGU 12 (RS6S)         
1 53311U 98067TW  23005.38658153  .00371426  00000+0  15086-2 0  9996
2 53311  51.6293  40.7410 0006537  18.2804 341.8434 15.84652109 26276
TSIOLKOVSKY-RYAZAN 1 (*)
1 53312U 98067TX  23005.56902006  .00306667  00000+0  14000-2 0  9996
2 53312  51.6303  40.4762 0006810  12.8863 347.2312 15.82340558 26236
TSIOLKOVSKY-RYAZAN 2 (*)
1 53313U 98067TY  23005.56180965  .00316712  00000+0  14329-2 0  9995
2 53313  51.6324  40.4333 0006721  16.0931 344.0284 15.82507833 26286
YUZGU 10 (RS4S)         
1 53321U 98067TZ  23005.58163862  .00296713  00000+0  13827-2 0  9993
2 53321  51.6332  40.5661 0006226  12.3956 347.7198 15.81930104 26289
RS29S (SXC3-2110 CYCLO*)
1 53373U 22096D   23005.55700877  .00018623  00000+0  67615-3 0  9996
2 53373  97.4275 271.1639 0003065  49.6460  56.4155 15.28353129 22761
RS32S (SXC3-212 MONITO*)
1 53374U 22096E   23005.54878847  .00016872  00000+0  61381-3 0  9997
2 53374  97.4286 271.1673 0002666  48.8257  56.2426 15.28308013 22764
RS34S (SXC3-218 KUZBAS*)
1 53375U 22096F   23005.57022824  .00014867  00000+0  54996-3 0  9993
2 53375  97.4274 271.1426 0002781  47.2423  54.5984 15.27786108 22768
RS23S (SXC3-21 UTMN)    
1 53376U 22096G   23005.56835943  .00015424  00000+0  56821-3 0  9996
2 53376  97.4280 271.1531 0002757  49.0386  71.2337 15.27914265 22769
RS28S (SXC3-214 MIET-A*)
1 53377U 22096H   23005.56985278  .00014663  00000+0  54231-3 0  9991
2 53377  97.4285 271.1552 0002697  47.9013  73.1582 15.27796721 22763
RS26S (KAI-1)           
1 53378U 22096J   23005.57612480  .00012744  00000+0  47607-3 0  9992
2 53378  97.4279 271.1346 0002424  39.1209  60.1269 15.27500943 22763
RS19S (SXC3-219 ISOI)   
1 53381U 22096M   23005.58198980  .00014820  00000+0  53928-3 0  9991
2 53381  97.4277 271.2716 0002455 302.9051 142.1181 15.28330067 22771
RS21S (CUBESX-HSE-2)    
1 53383U 22096P   23005.51951478  .00015340  00000+0  55678-3 0  9997
2 53383  97.4286 271.2235 0002579 301.5284 184.9525 15.28406680 22769
RS30S (SXC3-217 SIREN)  
1 53384U 22096Q   23005.52473623  .00014043  00000+0  51397-3 0  9993
2 53384  97.4280 271.2099 0002657 299.4408 173.7699 15.28152199 22763
RS20S (GEOSCAN-EDELVEIS)
1 53385U 22096R   23005.53551132  .00019298  00000+0  67899-3 0  9998
2 53385  97.4273 271.3486 0003006 301.5628 183.9896 15.29375570 22803
RS33S (SXC3-215 VIZARD) 
1 53386U 22096S   23005.54259450  .00022555  00000+0  76909-3 0  9990
2 53386  97.4268 271.4779 0003507 294.4397 167.0389 15.30363955 22809
CAS-5A (FO-118)         
1 54684U 22167C   23005.59672238  .00009716  00000+0  61402-3 0  9995
2 54684  97.5390 145.1172 0014940 170.3531 320.5583 15.09155553  4112
CAS-10                  
1 54816U 21035C   23005.59716024  .00140121  00000+0  14175-2 0  9997
2 54816  41.4783  66.4825 0005408 320.1883  39.8565 15.64038504  2774
CUTE-1 (CO-55)          
1 27844U 03031E   23005.29707139  .00000375  00000+0  18724-3 0  9999
2 27844  98.6791  14.9520 0008986 234.0543 125.9802 14.22575972 12576
